IRIDIUM 159             
1 43578U 18061K   23352.61076976  .00000123  00000+0  37018-4 0  9998
2 43578  86.3969  77.6872 0002021 100.9004 259.2420 14.34216820282722
IRIDIUM 180             
1 43922U 19002A   23352.61026332  .00000311  00000+0  10408-3 0  9990
2 43922  86.3972  14.5613 0001986  93.9516 266.1907 14.34218086258333
IRIDIUM 176             
1 43923U 19002B   23352.57611048  .00001210  00000+0  18798-3 0  9999
2 43923  86.6101  14.6071 0002381  91.9414 268.2076 14.72254266265122
IRIDIUM 168             
1 43924U 19002C   23352.60392224  .00000313  00000+0  10454-3 0  9990
2 43924  86.3975  14.6157 0002045  94.0134 266.1296 14.34218441258311
IRIDIUM 173             
1 43925U 19002D   23352.59123595  .00000327  00000+0  10971-3 0  9991
2 43925  86.3972  14.5475 0002214  98.2142 261.9305 14.34218078258291
IRIDIUM 169             
1 43926U 19002E   23352.58478520  .00000437  00000+0  13632-3 0  9991
2 43926  86.4230  46.1566 0004946 101.8329 258.3424 14.38601042259164
IRIDIUM 172             
1 43927U 19002F   23352.51512768  .00000344  00000+0  11570-3 0  9994
2 43927  86.3971  14.5843 0002089  92.4891 267.6544 14.34220609258299
IRIDIUM 175             
1 43928U 19002G   23352.50220731  .00001301  00000+0  20231-3 0  9998
2 43928  86.1510 358.0574 0002429  89.6887 270.4607 14.72245285265104
